[{"OBJECT_NAME":"ONEWEB-0392","OBJECT_ID":"2021-132D","EPOCH":"2026-01-15T01:39:41.279328","MEAN_MOTION":13.17640089,"ECCENTRICITY":0.0002072,"INCLINATION":87.9096,"RA_OF_ASC_NODE":36.2696,"ARG_OF_PERICENTER":96.367,"MEAN_ANOMALY":263.7697,"EPHEMERIS_TYPE":0,"CLASSIFICATION_TYPE":"U","NORAD_CAT_ID":50472,"ELEMENT_SET_NO":999,"REV_AT_EPOCH":19795,"BSTAR":-0.0021294,"MEAN_MOTION_DOT":-8.14e-6,"MEAN_MOTION_DDOT":0},{"OBJECT_NAME":"ONEWEB-0393","OBJECT_ID":"2021-132E","EPOCH":"2026-01-15T02:50:20.109984","MEAN_MOTION":13.1764807,"ECCENTRICITY":0.0001989,"INCLINATION":87.9096,"RA_OF_ASC_NODE":36.2827,"ARG_OF_PERICENTER":95.3422,"MEAN_ANOMALY":264.7936,"EPHEMERIS_TYPE":0,"CLASSIFICATION_TYPE":"U","NORAD_CAT_ID":50473,"ELEMENT_SET_NO":999,"REV_AT_EPOCH":19795,"BSTAR":3.2573e-5,"MEAN_MOTION_DOT":2.6e-7,"MEAN_MOTION_DDOT":0},{"OBJECT_NAME":"ONEWEB-0394","OBJECT_ID":"2021-132F","EPOCH":"2026-01-14T23:29:51.328320","MEAN_MOTION":13.18685603,"ECCENTRICITY":0.0001986,"INCLINATION":87.9186,"RA_OF_ASC_NODE":5.857,"ARG_OF_PERICENTER":86.2854,"MEAN_ANOMALY":273.8505,"EPHEMERIS_TYPE":0,"CLASSIFICATION_TYPE":"U","NORAD_CAT_ID":50474,"ELEMENT_SET_NO":999,"REV_AT_EPOCH":20140,"BSTAR":1.9171e-5,"MEAN_MOTION_DOT":2.0e-7,"MEAN_MOTION_DDOT":0},{"OBJECT_NAME":"ONEWEB-0395","OBJECT_ID":"2021-132G","EPOCH":"2026-01-15T02:46:37.409664","MEAN_MOTION":13.11416719,"ECCENTRICITY":0.0001855,"INCLINATION":87.8819,"RA_OF_ASC_NODE":51.5468,"ARG_OF_PERICENTER":104.5123,"MEAN_ANOMALY":255.6211,"EPHEMERIS_TYPE":0,"CLASSIFICATION_TYPE":"U","NORAD_CAT_ID":50475,"ELEMENT_SET_NO":999,"REV_AT_EPOCH":19565,"BSTAR":-0.0013054,"MEAN_MOTION_DOT":-4.5e-6,"MEAN_MOTION_DDOT":0},{"OBJECT_NAME":"ONEWEB-0396","OBJECT_ID":"2021-132H","EPOCH":"2026-01-14T23:20:21.953184","MEAN_MOTION":13.18685787,"ECCENTRICITY":0.000194,"INCLINATION":87.9173,"RA_OF_ASC_NODE":5.8706,"ARG_OF_PERICENTER":87.5513,"MEAN_ANOMALY":272.5841,"EPHEMERIS_TYPE":0,"CLASSIFICATION_TYPE":"U","NORAD_CAT_ID":50476,"ELEMENT_SET_NO":999,"REV_AT_EPOCH":20144,"BSTAR":-6.0938e-5,"MEAN_MOTION_DOT":-1.1e-7,"MEAN_MOTION_DDOT":0},{"OBJECT_NAME":"ONEWEB-0397","OBJECT_ID":"2021-132J","EPOCH":"2026-01-14T23:41:43.722240","MEAN_MOTION":13.18686487,"ECCENTRICITY":0.0002001,"INCLINATION":87.9186,"RA_OF_ASC_NODE":5.8676,"ARG_OF_PERICENTER":83.0111,"MEAN_ANOMALY":277.1249,"EPHEMERIS_TYPE":0,"CLASSIFICATION_TYPE":"U","NORAD_CAT_ID":50477,"ELEMENT_SET_NO":999,"REV_AT_EPOCH":20142,"BSTAR":0.00013804,"MEAN_MOTION_DOT":6.7e-7,"MEAN_MOTION_DDOT":0},{"OBJECT_NAME":"ONEWEB-0398","OBJECT_ID":"2021-132K","EPOCH":"2026-01-15T02:00:15.136992","MEAN_MOTION":13.11418313,"ECCENTRICITY":0.0001717,"INCLINATION":87.8831,"RA_OF_ASC_NODE":51.5293,"ARG_OF_PERICENTER":109.5393,"MEAN_ANOMALY":250.5921,"EPHEMERIS_TYPE":0,"CLASSIFICATION_TYPE":"U","NORAD_CAT_ID":50478,"ELEMENT_SET_NO":999,"REV_AT_EPOCH":19554,"BSTAR":0.0014781,"MEAN_MOTION_DOT":5.37e-6,"MEAN_MOTION_DDOT":0},{"OBJECT_NAME":"ONEWEB-0399","OBJECT_ID":"2021-132L","EPOCH":"2026-01-15T03:30:35.953344","MEAN_MOTION":13.1141862,"ECCENTRICITY":0.0002336,"INCLINATION":87.8825,"RA_OF_ASC_NODE":51.5287,"ARG_OF_PERICENTER":94.5269,"MEAN_ANOMALY":265.6126,"EPHEMERIS_TYPE":0,"CLASSIFICATION_TYPE":"U","NORAD_CAT_ID":50479,"ELEMENT_SET_NO":999,"REV_AT_EPOCH":19554,"BSTAR":0.00056238,"MEAN_MOTION_DOT":2.12e-6,"MEAN_MOTION_DDOT":0},{"OBJECT_NAME":"ONEWEB-0400","OBJECT_ID":"2021-132M","EPOCH":"2026-01-14T23:10:51.308832","MEAN_MOTION":13.18685222,"ECCENTRICITY":0.0001672,"INCLINATION":87.9184,"RA_OF_ASC_NODE":5.8619,"ARG_OF_PERICENTER":92.019,"MEAN_ANOMALY":268.1134,"EPHEMERIS_TYPE":0,"CLASSIFICATION_TYPE":"U","NORAD_CAT_ID":50480,"ELEMENT_SET_NO":999,"REV_AT_EPOCH":20141,"BSTAR":6.247e-5,"MEAN_MOTION_DOT":3.8e-7,"MEAN_MOTION_DDOT":0},{"OBJECT_NAME":"ONEWEB-0401","OBJECT_ID":"2021-132N","EPOCH":"2026-01-14T22:25:43.392000","MEAN_MOTION":13.18687045,"ECCENTRICITY":0.0001807,"INCLINATION":87.9183,"RA_OF_ASC_NODE":5.8642,"ARG_OF_PERICENTER":80.2298,"MEAN_ANOMALY":279.9038,"EPHEMERIS_TYPE":0,"CLASSIFICATION_TYPE":"U","NORAD_CAT_ID":50481,"ELEMENT_SET_NO":999,"REV_AT_EPOCH":20141,"BSTAR":4.1316e-5,"MEAN_MOTION_DOT":2.9e-7,"MEAN_MOTION_DDOT":0},{"OBJECT_NAME":"ONEWEB-0402","OBJECT_ID":"2021-132P","EPOCH":"2026-01-14T23:22:43.129056","MEAN_MOTION":13.18684363,"ECCENTRICITY":0.0001872,"INCLINATION":87.9184,"RA_OF_ASC_NODE":5.8487,"ARG_OF_PERICENTER":69.0965,"MEAN_ANOMALY":291.0367,"EPHEMERIS_TYPE":0,"CLASSIFICATION_TYPE":"U","NORAD_CAT_ID":50482,"ELEMENT_SET_NO":999,"REV_AT_EPOCH":20144,"BSTAR":-1.8654e-6,"MEAN_MOTION_DOT":1.2e-7,"MEAN_MOTION_DDOT":0},{"OBJECT_NAME":"ONEWEB-0403","OBJECT_ID":"2021-132Q","EPOCH":"2026-01-14T22:09:06.728256","MEAN_MOTION":13.18685793,"ECCENTRICITY":0.0001888,"INCLINATION":87.9184,"RA_OF_ASC_NODE":5.8809,"ARG_OF_PERICENTER":88.837,"MEAN_ANOMALY":271.2978,"EPHEMERIS_TYPE":0,"CLASSIFICATION_TYPE":"U","NORAD_CAT_ID":50483,"ELEMENT_SET_NO":999,"REV_AT_EPOCH":20139,"BSTAR":0.00010253,"MEAN_MOTION_DOT":5.3e-7,"MEAN_MOTION_DDOT":0},{"OBJECT_NAME":"ONEWEB-0404","OBJECT_ID":"2021-132R","EPOCH":"2026-01-15T03:03:42.931872","MEAN_MOTION":13.11418313,"ECCENTRICITY":0.0002173,"INCLINATION":87.8824,"RA_OF_ASC_NODE":51.5413,"ARG_OF_PERICENTER":100.3144,"MEAN_ANOMALY":259.8229,"EPHEMERIS_TYPE":0,"CLASSIFICATION_TYPE":"U","NORAD_CAT_ID":50484,"ELEMENT_SET_NO":999,"REV_AT_EPOCH":19563,"BSTAR":-0.0012592,"MEAN_MOTION_DOT":-4.34e-6,"MEAN_MOTION_DDOT":0},{"OBJECT_NAME":"ONEWEB-0405","OBJECT_ID":"2021-132S","EPOCH":"2026-01-14T22:30:29.274912","MEAN_MOTION":13.18685539,"ECCENTRICITY":0.000195,"INCLINATION":87.9184,"RA_OF_ASC_NODE":5.8619,"ARG_OF_PERICENTER":79.5662,"MEAN_ANOMALY":280.569,"EPHEMERIS_TYPE":0,"CLASSIFICATION_TYPE":"U","NORAD_CAT_ID":50485,"ELEMENT_SET_NO":999,"REV_AT_EPOCH":20179,"BSTAR":-1.2474e-5,"MEAN_MOTION_DOT":8.0e-8,"MEAN_MOTION_DDOT":0},{"OBJECT_NAME":"ONEWEB-0406","OBJECT_ID":"2021-132T","EPOCH":"2026-01-14T22:16:13.944288","MEAN_MOTION":13.18685357,"ECCENTRICITY":0.0002053,"INCLINATION":87.9185,"RA_OF_ASC_NODE":5.8893,"ARG_OF_PERICENTER":100.2507,"MEAN_ANOMALY":259.8857,"EPHEMERIS_TYPE":0,"CLASSIFICATION_TYPE":"U","NORAD_CAT_ID":50486,"ELEMENT_SET_NO":999,"REV_AT_EPOCH":20142,"BSTAR":0.00011783,"MEAN_MOTION_DOT":5.9e-7,"MEAN_MOTION_DDOT":0},{"OBJECT_NAME":"ONEWEB-0407","OBJECT_ID":"2021-132U","EPOCH":"2026-01-14T11:11:09.273984","MEAN_MOTION":13.18686045,"ECCENTRICITY":0.00016758,"INCLINATION":87.9188,"RA_OF_ASC_NODE":5.9645,"ARG_OF_PERICENTER":81.886,"MEAN_ANOMALY":278.2462,"EPHEMERIS_TYPE":0,"CLASSIFICATION_TYPE":"U","NORAD_CAT_ID":50487,"ELEMENT_SET_NO":999,"REV_AT_EPOCH":20130,"BSTAR":7.6989001e-5,"MEAN_MOTION_DOT":4.3e-7,"MEAN_MOTION_DDOT":0},{"OBJECT_NAME":"ONEWEB-0409","OBJECT_ID":"2021-132V","EPOCH":"2026-01-15T03:01:16.794048","MEAN_MOTION":13.11417427,"ECCENTRICITY":0.0002084,"INCLINATION":87.8841,"RA_OF_ASC_NODE":51.5152,"ARG_OF_PERICENTER":107.2722,"MEAN_ANOMALY":252.8634,"EPHEMERIS_TYPE":0,"CLASSIFICATION_TYPE":"U","NORAD_CAT_ID":50488,"ELEMENT_SET_NO":999,"REV_AT_EPOCH":19552,"BSTAR":-0.0013437,"MEAN_MOTION_DOT":-4.64e-6,"MEAN_MOTION_DDOT":0}]
