ONEWEB-0392             
1 50472U 21132D   26015.06922777 -.00000814  00000+0 -21294-2 0  9995
2 50472  87.9096  36.2696 0002072  96.3670 263.7697 13.17640089197953
ONEWEB-0393             
1 50473U 21132E   26015.11828831  .00000026  00000+0  32573-4 0  9995
2 50473  87.9096  36.2827 0001989  95.3422 264.7936 13.17648070197955
ONEWEB-0394             
1 50474U 21132F   26014.97906630  .00000020  00000+0  19171-4 0  9996
2 50474  87.9186   5.8570 0001986  86.2854 273.8505 13.18685603201401
ONEWEB-0395             
1 50475U 21132G   26015.11571076 -.00000450  00000+0 -13054-2 0  9997
2 50475  87.8819  51.5468 0001855 104.5123 255.6211 13.11416719195650
ONEWEB-0396             
1 50476U 21132H   26014.97247631 -.00000011  00000+0 -60938-4 0  9996
2 50476  87.9173   5.8706 0001940  87.5513 272.5841 13.18685787201442
ONEWEB-0397             
1 50477U 21132J   26014.98731160  .00000067  00000+0  13804-3 0  9991
2 50477  87.9186   5.8676 0002001  83.0111 277.1249 13.18686487201426
ONEWEB-0398             
1 50478U 21132K   26015.08350853  .00000537  00000+0  14781-2 0  9996
2 50478  87.8831  51.5293 0001717 109.5393 250.5921 13.11418313195546
ONEWEB-0399             
1 50479U 21132L   26015.14624946  .00000212  00000+0  56238-3 0  9995
2 50479  87.8825  51.5287 0002336  94.5269 265.6126 13.11418620195541
ONEWEB-0400             
1 50480U 21132M   26014.96587163  .00000038  00000+0  62470-4 0  9997
2 50480  87.9184   5.8619 0001672  92.0190 268.1134 13.18685222201413
ONEWEB-0401             
1 50481U 21132N   26014.93453000  .00000029  00000+0  41316-4 0  9993
2 50481  87.9183   5.8642 0001807  80.2298 279.9038 13.18687045201415
ONEWEB-0402             
1 50482U 21132P   26014.97411029  .00000012  00000+0 -18654-5 0  9996
2 50482  87.9184   5.8487 0001872  69.0965 291.0367 13.18684363201445
ONEWEB-0403             
1 50483U 21132Q   26014.92299454  .00000053  00000+0  10253-3 0  9997
2 50483  87.9184   5.8809 0001888  88.8370 271.2978 13.18685793201390
ONEWEB-0404             
1 50484U 21132R   26015.12758023 -.00000434  00000+0 -12592-2 0  9995
2 50484  87.8824  51.5413 0002173 100.3144 259.8229 13.11418313195632
ONEWEB-0405             
1 50485U 21132S   26014.93783883  .00000008  00000+0 -12474-4 0  9993
2 50485  87.9184   5.8619 0001950  79.5662 280.5690 13.18685539201798
ONEWEB-0406             
1 50486U 21132T   26014.92793917  .00000059  00000+0  11783-3 0  9998
2 50486  87.9185   5.8893 0002053 100.2507 259.8857 13.18685357201421
ONEWEB-0407             
1 50487U 21132U   26014.46607956  .00000043  00000+0  76989-4 0  9998
2 50487  87.9188   5.9645 0001675  81.8860 278.2462 13.18686045201305
ONEWEB-0409             
1 50488U 21132V   26015.12588882 -.00000464  00000+0 -13437-2 0  9995
2 50488  87.8841  51.5152 0002084 107.2722 252.8634 13.11417427195520
